NORAD_CAT_ID,OBJECT_NAME,OBJECT_TYPE,EPOCH,MEAN_MOTION,ECCENTRICITY,INCLINATION,RA_OF_ASC_NODE,ARG_OF_PERICENTER,MEAN_ANOMALY,BSTAR,MEAN_MOTION_DOT,MEAN_MOTION_DDOT,TLE_LINE0,TLE_LINE1,TLE_LINE2,SEMIMAJOR_AXIS,PERIOD,APOGEE,PERIGEE,DECAYED
54008.0,STARLINK-5145,PAYLOAD,2022-10-30 22:00:01,15.73121747,0.000195,53.2171,327.8174,23.3776,113.5122,0.00058877,0.0008255,0.0,0 STARLINK-5145,1 54008U 22125AW  22303.91668981  .00082550  00000-0  58877-3 0  9995,2 54008  53.2171 327.8174 0001950  23.3776 113.5122 15.73121747  1300,6728.118,91.538,351.295,348.671,0.0
54008.0,STARLINK-5145,PAYLOAD,2022-10-31 14:00:01,15.73177631,0.000227,53.2172,324.5206,17.8182,296.8001,0.00031707,0.00044072,0.0,0 STARLINK-5145,1 54008U 22125AW  22304.58334491  .00044072  00000-0  31707-3 0  9995,2 54008  53.2172 324.5206 0002270  17.8182 296.8001 15.73177631  1300,6727.959,91.534,351.351,348.297,0.0
54008.0,STARLINK-5145,PAYLOAD,2022-10-31 20:00:01,15.73221334,0.0002061999999999,53.2174,323.2819,21.7444,269.6335,-0.00045872,-0.00064572,0.0,0 STARLINK-5145,1 54008U 22125AW  22304.83335648 -.00064572  00000-0 -45872-3 0  9995,2 54008  53.2174 323.2819 0002062  21.7444 269.6335 15.73221334  4459,6727.834,91.532,351.087,348.31199999999984,0.0
54008.0,STARLINK-5145,PAYLOAD,2022-10-31 22:00:01,15.73190542,0.000202,53.2172,322.8691,22.3414,21.2807,-0.00016525,-0.0002374,0.0,0 STARLINK-5145,1 54008U 22125AW  22304.91668981 -.00023740  00000-0 -16525-3 0  9998,2 54008  53.2172 322.8691 0002020  22.3414  21.2807 15.73190542  1301,6727.922,91.534,351.146,348.42800000000005,0.0
54008.0,STARLINK-5145,PAYLOAD,2022-11-01 04:00:00,15.73174765,0.0002084,53.2172,321.6329,23.3435,356.8964,0.00018088,0.00024813,0.0,0 STARLINK-5145,1 54008U 22125AW  22305.16667824  .00024813  00000-0  18088-3 0  9997,2 54008  53.2172 321.6329 0002084  23.3435 356.8964 15.73174765  4505,6727.967,91.535,351.2340000000001,348.43,0.0
54008.0,STARLINK-5145,PAYLOAD,2022-11-01 14:00:01,15.73212652,0.0002287,53.2164,319.5724,20.9627,200.3998,0.00022686,0.00031356,0.0,0 STARLINK-5145,1 54008U 22125AW  22305.58334491  .00031356  00000-0  22686-3 0  9993,2 54008  53.2164 319.5724 0002287  20.9627 200.3998 15.73212652  1305,6727.859,91.532,351.26300000000015,348.185,0.0
54008.0,STARLINK-5145,PAYLOAD,2022-11-01 22:00:00,15.73225185,0.0002066999999999,53.2166,317.9209,25.3631,284.9777,-0.00030251,-0.0004291,0.0,0 STARLINK-5145,1 54008U 22125AW  22305.91667824 -.00042910  00000-0 -30251-3 0  9996,2 54008  53.2166 317.9209 0002067  25.3631 284.9777 15.73225185  1305,6727.823,91.532,351.079,348.298,0.0
54008.0,STARLINK-5145,PAYLOAD,2022-11-02 06:00:00,15.73181997,0.0002143,53.2168,316.2729,21.0328,18.2542,-0.00038093,-0.00053706,0.0,0 STARLINK-5145,1 54008U 22125AW  22306.25001157 -.00053706  00000-0 -38093-3 0  9992,2 54008  53.2168 316.2729 0002143  21.0328  18.2542 15.73181997  4670,6727.946999999999,91.534,351.25300000000016,348.37,0.0
54008.0,STARLINK-5145,PAYLOAD,2022-11-02 14:00:01,15.7315986,0.0002276999999999,53.2166,314.6235,17.9413,110.2232,0.00049268,0.00068979,0.0,0 STARLINK-5145,1 54008U 22125AW  22306.58334491  .00068979  00000-0  49268-3 0  9990,2 54008  53.2166 314.6235 0002277  17.9413 110.2232 15.73159860  1309,6728.01,91.536,351.407,348.343,0.0
54008.0,STARLINK-5145,PAYLOAD,2022-11-02 22:00:00,15.73217395,0.0002105,53.2164,312.9727,24.5303,192.5403,7.4317e-05,9.829e-05,0.0,0 STARLINK-5145,1 54008U 22125AW  22306.91667824  .00009829  00000-0  74317-4 0  9999,2 54008  53.2164 312.9727 0002105  24.5303 192.5403 15.73217395  1307,6727.846,91.532,351.12699999999984,348.2940000000001,0.0
54008.0,STARLINK-5145,PAYLOAD,2022-11-03 14:00:01,15.73244441,0.0002313,53.2155,309.6754,21.4744,13.5462,-0.000129,-0.00018723,0.0,0 STARLINK-5145,1 54008U 22125AW  22307.58334491 -.00018723  00000-0 -12900-3 0  9998,2 54008  53.2155 309.6754 0002313  21.4744  13.5462 15.73244441  1305,6727.768,91.531,351.19,348.077,0.0
54008.0,STARLINK-5145,PAYLOAD,2022-11-03 22:00:00,15.732318,0.0002011,53.2156,308.0239,23.3647,100.6523,0.00029141,0.00040532,0.0,0 STARLINK-5145,1 54008U 22125AW  22307.91667824  .00040532  00000-0  29141-3 0  9990,2 54008  53.2156 308.0239 0002011  23.3647 100.6523 15.73231800  1306,6727.805,91.531,351.022,348.31699999999995,0.0
54008.0,STARLINK-5145,PAYLOAD,2022-11-04 14:00:01,15.7323578,0.00023,53.2157,304.7236,22.7755,279.2051,-0.00011519,-0.00016782,0.0,0 STARLINK-5145,1 54008U 22125AW  22308.58334491 -.00016782  00000-0 -11519-3 0  9997,2 54008  53.2157 304.7236 0002300  22.7755 279.2051 15.73235780  5046,6727.793000000002,91.531,351.206,348.111,0.0
54008.0,STARLINK-5145,PAYLOAD,2022-11-04 22:00:01,15.73177337,0.0002133,53.2156,303.075,26.9666,4.0008,-0.00032473,-0.00045907,0.0,0 STARLINK-5145,1 54008U 22125AW  22308.91668981 -.00045907  00000-0 -32473-3 0  9991,2 54008  53.2156 303.0750 0002133  26.9666   4.0008 15.73177337  5093,6727.96,91.534,351.26,348.39,0.0
54008.0,STARLINK-5145,PAYLOAD,2022-11-05 14:00:01,15.73073634,0.0002212,53.2146,299.7778,20.5768,188.1102,0.00031231,0.00043202,0.0,0 STARLINK-5145,1 54008U 22125AW  22309.58335648  .00043202  00000-0  31231-3 0  9991,2 54008  53.2146 299.7778 0002212  20.5768 188.1102 15.73073634  1308,6728.255,91.541,351.6090000000001,348.63199999999995,0.0
54008.0,STARLINK-5145,PAYLOAD,2022-11-05 22:00:01,15.73098098,0.0002009,53.2148,298.1267,24.5585,272.9214,0.0011717,0.00166393,0.0,0 STARLINK-5145,1 54008U 22125AW  22309.91668981  .00166393  00000-0  11717-2 0  9990,2 54008  53.2148 298.1267 0002009  24.5585 272.9214 15.73098098  5256,6728.186,91.539,351.402,348.699,0.0
54008.0,STARLINK-5145,PAYLOAD,2022-11-06 06:00:00,15.73190301,0.0002158,53.215,296.4792,23.9031,2.3977,4.9261e-05,6.295e-05,0.0,0 STARLINK-5145,1 54008U 22125AW  22310.25001157  .00006295  00000-0  49261-4 0  9996,2 54008  53.2150 296.4792 0002158  23.9031   2.3977 15.73190301  5304,6727.9230000000025,91.534,351.24,348.336,0.0
54008.0,STARLINK-5145,PAYLOAD,2022-11-06 14:00:01,15.73223768,0.0002177,53.2149,294.8292,21.0431,94.1631,0.00021614,0.00029853,0.0,0 STARLINK-5145,1 54008U 22125AW  22310.58334491  .00029853  00000-0  21614-3 0  9998,2 54008  53.2149 294.8292 0002177  21.0431  94.1631 15.73223768  1309,6727.8269999999975,91.532,351.157,348.228,0.0
54008.0,STARLINK-5145,PAYLOAD,2022-11-06 22:00:00,15.73192888,0.0001981,53.215,293.1779,23.4268,180.7591,0.0010786,0.00153508,0.0,0 STARLINK-5145,1 54008U 22125AW  22310.91667824  .00153508  00000-0  10786-2 0  9996,2 54008  53.2150 293.1779 0001981  23.4268 180.7591 15.73192888  5410,6727.915,91.534,351.11300000000006,348.4480000000001,0.0
54008.0,STARLINK-5145,PAYLOAD,2022-11-07 06:00:00,15.73363561,0.0002164,53.2147,291.5303,22.1492,271.0073,-0.0011389,-0.00158611,0.0,0 STARLINK-5145,1 54008U 22125AW  22311.25001157 -.00158611  00000-0 -11389-2 0  9997,2 54008  53.2147 291.5303 0002164  22.1492 271.0073 15.73363561  5462,6727.429,91.524,350.75,347.838,0.0
54008.0,STARLINK-5145,PAYLOAD,2022-11-07 22:00:00,15.73182323,0.0001893,53.2147,288.2287,29.2545,81.9053,0.00035762,0.00049831,0.0,0 STARLINK-5145,1 54008U 22125AW  22311.91667824  .00049831  00000-0  35762-3 0  9992,2 54008  53.2147 288.2287 0001893  29.2545  81.9053 15.73182323  5563,6727.946,91.534,351.084,348.537,0.0
54008.0,STARLINK-5145,PAYLOAD,2022-11-08 06:00:00,15.73234676,0.0002147,53.2148,286.581,28.3833,171.7604,0.00030378,0.00042293,0.0,0 STARLINK-5145,1 54008U 22125AW  22312.25001157  .00042293  00000-0  30378-3 0  9994,2 54008  53.2148 286.5810 0002147  28.3833 171.7604 15.73234676  5626,6727.795999999999,91.531,351.106,348.217,0.0
54008.0,STARLINK-5145,PAYLOAD,2022-11-08 14:00:01,15.73272403,0.0002066,53.2149,284.9305,27.6329,261.4859,-0.00037312,-0.00052826,0.0,0 STARLINK-5145,1 54008U 22125AW  22312.58334491 -.00052826  00000-0 -37312-3 0  9990,2 54008  53.2149 284.9305 0002066  27.6329 261.4859 15.73272403  1300,6727.689,91.529,350.944,348.164,0.0
54008.0,STARLINK-5145,PAYLOAD,2022-11-08 22:00:00,15.73251023,0.0001907,53.2151,283.2797,31.6172,346.4933,-0.0001385,-0.00020056,0.0,0 STARLINK-5145,1 54008U 22125AW  22312.91667824 -.00020056  00000-0 -13850-3 0  9997,2 54008  53.2151 283.2797 0001907  31.6172 346.4933 15.73251023  5726,6727.75,91.53,350.898,348.332,0.0
54008.0,STARLINK-5145,PAYLOAD,2022-11-09 14:00:01,15.73117252,0.0002039,53.2144,279.9814,30.2539,165.763,-0.00078095,-0.00108448,0.0,0 STARLINK-5145,1 54008U 22125AW  22313.58334491 -.00108448  00000-0 -78095-3 0  9996,2 54008  53.2144 279.9814 0002039  30.2539 165.7630 15.73117252  5832,6728.130999999999,91.538,351.36800000000005,348.624,0.0
54008.0,STARLINK-5145,PAYLOAD,2022-11-09 22:00:01,15.73037919,0.0001986,53.2147,278.3312,40.9693,243.883,0.00068382,0.00095785,0.0,0 STARLINK-5145,1 54008U 22125AW  22313.91668981  .00095785  00000-0  68382-3 0  9992,2 54008  53.2147 278.3312 0001986  40.9693 243.8830 15.73037919  5886,6728.357,91.543,351.559,348.886,0.0
54008.0,STARLINK-5145,PAYLOAD,2022-11-10 04:00:00,15.731624599999998,0.0002019,53.2149,277.0953,31.5946,229.7781,0.00045255,0.00063272,0.0,0 STARLINK-5145,1 54008U 22125AW  22314.16667824  .00063272  00000-0  45255-3 0  9995,2 54008  53.2149 277.0953 0002019  31.5946 229.7781 15.73162460  5923,6728.002,91.535,351.226,348.509,0.0
54008.0,STARLINK-5145,PAYLOAD,2022-11-10 14:00:01,15.73261322,0.0001889,53.215,275.0334,29.1711,73.3296,-0.00044791,-0.00063181,0.0,0 STARLINK-5145,1 54008U 22125AW  22314.58334491 -.00063181  00000-0 -44791-3 0  9997,2 54008  53.2150 275.0334 0001889  29.1711  73.3296 15.73261322  1302,6727.72,91.53,350.856,348.314,0.0
54008.0,STARLINK-5145,PAYLOAD,2022-11-10 20:00:01,15.73203284,0.0001725,53.215,273.7951,32.668,46.5731,0.00025949,0.00035959,0.0,0 STARLINK-5145,1 54008U 22125AW  22314.83334491  .00035959  00000-0  25949-3 0  9999,2 54008  53.2150 273.7951 0001725  32.6680  46.5731 15.73203284  6028,6727.886,91.533,350.911,348.59,0.0
